[{"OBJECT_NAME":"ONEWEB-0101","OBJECT_ID":"2021-025H","EPOCH":"2025-12-02T03:33:32.723424","MEAN_MOTION":13.13470504,"ECCENTRICITY":0.00017731,"INCLINATION":87.8986,"RA_OF_ASC_NODE":359.3987,"ARG_OF_PERICENTER":88.0156,"MEAN_ANOMALY":272.1176,"EPHEMERIS_TYPE":0,"CLASSIFICATION_TYPE":"U","NORAD_CAT_ID":48049,"ELEMENT_SET_NO":999,"REV_AT_EPOCH":22763,"BSTAR":0.00066635286,"MEAN_MOTION_DOT":2.56e-6,"MEAN_MOTION_DDOT":0},{"OBJECT_NAME":"ONEWEB-0113","OBJECT_ID":"2021-025J","EPOCH":"2025-12-02T02:13:20.126784","MEAN_MOTION":13.13984344,"ECCENTRICITY":0.00017997,"INCLINATION":87.899,"RA_OF_ASC_NODE":359.3399,"ARG_OF_PERICENTER":101.5357,"MEAN_ANOMALY":258.5975,"EPHEMERIS_TYPE":0,"CLASSIFICATION_TYPE":"U","NORAD_CAT_ID":48050,"ELEMENT_SET_NO":999,"REV_AT_EPOCH":22772,"BSTAR":-0.00055201387,"MEAN_MOTION_DOT":-1.9e-6,"MEAN_MOTION_DDOT":0},{"OBJECT_NAME":"ONEWEB-0112","OBJECT_ID":"2021-025K","EPOCH":"2025-12-02T02:44:47.453568","MEAN_MOTION":13.13470806,"ECCENTRICITY":0.00016972,"INCLINATION":87.8995,"RA_OF_ASC_NODE":359.3683,"ARG_OF_PERICENTER":94.4653,"MEAN_ANOMALY":265.667,"EPHEMERIS_TYPE":0,"CLASSIFICATION_TYPE":"U","NORAD_CAT_ID":48051,"ELEMENT_SET_NO":999,"REV_AT_EPOCH":22772,"BSTAR":-0.00011962823,"MEAN_MOTION_DOT":-3.1e-7,"MEAN_MOTION_DDOT":0},{"OBJECT_NAME":"ONEWEB-0156","OBJECT_ID":"2021-025L","EPOCH":"2025-12-02T02:56:58.556544","MEAN_MOTION":13.13470367,"ECCENTRICITY":0.00016167,"INCLINATION":87.8993,"RA_OF_ASC_NODE":359.3781,"ARG_OF_PERICENTER":92.3914,"MEAN_ANOMALY":267.7401,"EPHEMERIS_TYPE":0,"CLASSIFICATION_TYPE":"U","NORAD_CAT_ID":48052,"ELEMENT_SET_NO":999,"REV_AT_EPOCH":22770,"BSTAR":0.0004724117,"MEAN_MOTION_DOT":1.85e-6,"MEAN_MOTION_DDOT":0},{"OBJECT_NAME":"ONEWEB-0161","OBJECT_ID":"2021-025M","EPOCH":"2025-12-02T02:20:24.427680","MEAN_MOTION":13.13469524,"ECCENTRICITY":0.00016022,"INCLINATION":87.8987,"RA_OF_ASC_NODE":359.3993,"ARG_OF_PERICENTER":90.1011,"MEAN_ANOMALY":270.0302,"EPHEMERIS_TYPE":0,"CLASSIFICATION_TYPE":"U","NORAD_CAT_ID":48053,"ELEMENT_SET_NO":999,"REV_AT_EPOCH":22763,"BSTAR":-0.00078621797,"MEAN_MOTION_DOT":-2.74e-6,"MEAN_MOTION_DDOT":0},{"OBJECT_NAME":"ONEWEB-0158","OBJECT_ID":"2021-025N","EPOCH":"2025-12-02T03:11:36.459168","MEAN_MOTION":13.1346968,"ECCENTRICITY":0.00020695,"INCLINATION":87.8992,"RA_OF_ASC_NODE":359.3758,"ARG_OF_PERICENTER":93.8205,"MEAN_ANOMALY":266.3161,"EPHEMERIS_TYPE":0,"CLASSIFICATION_TYPE":"U","NORAD_CAT_ID":48054,"ELEMENT_SET_NO":999,"REV_AT_EPOCH":22776,"BSTAR":0.0010514776,"MEAN_MOTION_DOT":3.97e-6,"MEAN_MOTION_DDOT":0},{"OBJECT_NAME":"ONEWEB-0157","OBJECT_ID":"2021-025P","EPOCH":"2025-12-02T01:58:28.357824","MEAN_MOTION":13.13468745,"ECCENTRICITY":0.00015211,"INCLINATION":87.899,"RA_OF_ASC_NODE":359.3923,"ARG_OF_PERICENTER":81.0409,"MEAN_ANOMALY":279.0892,"EPHEMERIS_TYPE":0,"CLASSIFICATION_TYPE":"U","NORAD_CAT_ID":48055,"ELEMENT_SET_NO":999,"REV_AT_EPOCH":22769,"BSTAR":-0.00017443489,"MEAN_MOTION_DOT":-5.1e-7,"MEAN_MOTION_DDOT":0},{"OBJECT_NAME":"ONEWEB-0162","OBJECT_ID":"2021-025Q","EPOCH":"2025-12-02T03:13:50.672928","MEAN_MOTION":13.13471624,"ECCENTRICITY":0.00015926,"INCLINATION":87.8994,"RA_OF_ASC_NODE":359.3838,"ARG_OF_PERICENTER":95.5978,"MEAN_ANOMALY":264.5332,"EPHEMERIS_TYPE":0,"CLASSIFICATION_TYPE":"U","NORAD_CAT_ID":48056,"ELEMENT_SET_NO":999,"REV_AT_EPOCH":22767,"BSTAR":0.0011326696,"MEAN_MOTION_DOT":4.26e-6,"MEAN_MOTION_DDOT":0},{"OBJECT_NAME":"ONEWEB-0155","OBJECT_ID":"2021-025R","EPOCH":"2025-12-02T01:34:05.549664","MEAN_MOTION":13.13471742,"ECCENTRICITY":0.00018055,"INCLINATION":87.8991,"RA_OF_ASC_NODE":359.4024,"ARG_OF_PERICENTER":88.5196,"MEAN_ANOMALY":271.614,"EPHEMERIS_TYPE":0,"CLASSIFICATION_TYPE":"U","NORAD_CAT_ID":48057,"ELEMENT_SET_NO":999,"REV_AT_EPOCH":22780,"BSTAR":0.00090885733,"MEAN_MOTION_DOT":3.45e-6,"MEAN_MOTION_DDOT":0},{"OBJECT_NAME":"ONEWEB-0149","OBJECT_ID":"2021-025S","EPOCH":"2025-12-02T02:05:46.817088","MEAN_MOTION":13.1347012,"ECCENTRICITY":0.00015839,"INCLINATION":87.899,"RA_OF_ASC_NODE":359.3922,"ARG_OF_PERICENTER":98.3803,"MEAN_ANOMALY":261.7506,"EPHEMERIS_TYPE":0,"CLASSIFICATION_TYPE":"U","NORAD_CAT_ID":48058,"ELEMENT_SET_NO":999,"REV_AT_EPOCH":22761,"BSTAR":-0.00043278736,"MEAN_MOTION_DOT":-1.45e-6,"MEAN_MOTION_DDOT":0},{"OBJECT_NAME":"ONEWEB-0148","OBJECT_ID":"2021-025T","EPOCH":"2025-12-02T03:01:51.266784","MEAN_MOTION":13.13470723,"ECCENTRICITY":0.00012079,"INCLINATION":87.8982,"RA_OF_ASC_NODE":359.4046,"ARG_OF_PERICENTER":104.2901,"MEAN_ANOMALY":255.8363,"EPHEMERIS_TYPE":0,"CLASSIFICATION_TYPE":"U","NORAD_CAT_ID":48059,"ELEMENT_SET_NO":999,"REV_AT_EPOCH":22774,"BSTAR":0.00079389805,"MEAN_MOTION_DOT":3.03e-6,"MEAN_MOTION_DDOT":0},{"OBJECT_NAME":"ONEWEB-0160","OBJECT_ID":"2021-025U","EPOCH":"2025-12-02T07:05:37.863168","MEAN_MOTION":13.13469267,"ECCENTRICITY":0.00024383,"INCLINATION":87.8984,"RA_OF_ASC_NODE":359.3683,"ARG_OF_PERICENTER":104.9058,"MEAN_ANOMALY":255.2341,"EPHEMERIS_TYPE":0,"CLASSIFICATION_TYPE":"U","NORAD_CAT_ID":48060,"ELEMENT_SET_NO":999,"REV_AT_EPOCH":22771,"BSTAR":0.00067787036,"MEAN_MOTION_DOT":2.6e-6,"MEAN_MOTION_DDOT":0},{"OBJECT_NAME":"ONEWEB-0163","OBJECT_ID":"2021-025V","EPOCH":"2025-12-02T03:04:16.064544","MEAN_MOTION":13.13472074,"ECCENTRICITY":0.00015797,"INCLINATION":87.8991,"RA_OF_ASC_NODE":359.3871,"ARG_OF_PERICENTER":84.4335,"MEAN_ANOMALY":275.6974,"EPHEMERIS_TYPE":0,"CLASSIFICATION_TYPE":"U","NORAD_CAT_ID":48061,"ELEMENT_SET_NO":999,"REV_AT_EPOCH":22781,"BSTAR":-0.0015328869,"MEAN_MOTION_DOT":-5.47e-6,"MEAN_MOTION_DDOT":0},{"OBJECT_NAME":"ONEWEB-0159","OBJECT_ID":"2021-025W","EPOCH":"2025-12-02T02:52:06.467520","MEAN_MOTION":13.13470729,"ECCENTRICITY":0.00015401,"INCLINATION":87.8993,"RA_OF_ASC_NODE":359.3724,"ARG_OF_PERICENTER":90.4309,"MEAN_ANOMALY":269.6996,"EPHEMERIS_TYPE":0,"CLASSIFICATION_TYPE":"U","NORAD_CAT_ID":48062,"ELEMENT_SET_NO":999,"REV_AT_EPOCH":22773,"BSTAR":0.00017800445,"MEAN_MOTION_DOT":7.8e-7,"MEAN_MOTION_DDOT":0},{"OBJECT_NAME":"ONEWEB-0164","OBJECT_ID":"2021-025X","EPOCH":"2025-12-02T02:25:16.813056","MEAN_MOTION":13.13470191,"ECCENTRICITY":0.00018707,"INCLINATION":87.8994,"RA_OF_ASC_NODE":359.3834,"ARG_OF_PERICENTER":93.7085,"MEAN_ANOMALY":266.4258,"EPHEMERIS_TYPE":0,"CLASSIFICATION_TYPE":"U","NORAD_CAT_ID":48063,"ELEMENT_SET_NO":999,"REV_AT_EPOCH":22771,"BSTAR":-0.00047898696,"MEAN_MOTION_DOT":-1.62e-6,"MEAN_MOTION_DDOT":0},{"OBJECT_NAME":"ONEWEB-0167","OBJECT_ID":"2021-025Y","EPOCH":"2025-12-02T03:05:30.687360","MEAN_MOTION":13.13468503,"ECCENTRICITY":0.0002017,"INCLINATION":87.8984,"RA_OF_ASC_NODE":359.4061,"ARG_OF_PERICENTER":72.8336,"MEAN_ANOMALY":287.3014,"EPHEMERIS_TYPE":0,"CLASSIFICATION_TYPE":"U","NORAD_CAT_ID":48064,"ELEMENT_SET_NO":999,"REV_AT_EPOCH":22770,"BSTAR":0.00088017367,"MEAN_MOTION_DOT":3.34e-6,"MEAN_MOTION_DDOT":0}]
