ONEWEB-0101             
1 48049U 21025H   25336.14829541  .00000256  00000+0  66635-3 0  9999
2 48049  87.8986 359.3987 0001773  88.0156 272.1176 13.13470504227637
ONEWEB-0113             
1 48050U 21025J   25336.09259406 -.00000190  00000+0 -55201-3 0  9998
2 48050  87.8990 359.3399 0001799 101.5357 258.5975 13.13984344227720
ONEWEB-0112             
1 48051U 21025K   25336.11443812 -.00000031  00000+0 -11963-3 0  9999
2 48051  87.8995 359.3683 0001697  94.4653 265.6670 13.13470806227722
ONEWEB-0156             
1 48052U 21025L   25336.12289996  .00000185  00000+0  47241-3 0  9998
2 48052  87.8993 359.3781 0001616  92.3914 267.7401 13.13470367227703
ONEWEB-0161             
1 48053U 21025M   25336.09750495 -.00000274  00000+0 -78622-3 0  9990
2 48053  87.8987 359.3993 0001602  90.1011 270.0302 13.13469524227633
ONEWEB-0158             
1 48054U 21025N   25336.13306087  .00000397  00000+0  10515-2 0  9990
2 48054  87.8992 359.3758 0002069  93.8205 266.3161 13.13469680227760
ONEWEB-0157             
1 48055U 21025P   25336.08227266 -.00000051  00000+0 -17443-3 0  9993
2 48055  87.8990 359.3923 0001521  81.0409 279.0892 13.13468745227695
ONEWEB-0162             
1 48056U 21025Q   25336.13461427  .00000426  00000+0  11327-2 0  9997
2 48056  87.8994 359.3838 0001592  95.5978 264.5332 13.13471624227670
ONEWEB-0155             
1 48057U 21025R   25336.06534201  .00000345  00000+0  90886-3 0  9999
2 48057  87.8991 359.4024 0001805  88.5196 271.6140 13.13471742227809
ONEWEB-0149             
1 48058U 21025S   25336.08734742 -.00000145  00000+0 -43279-3 0  9998
2 48058  87.8990 359.3922 0001583  98.3803 261.7506 13.13470120227616
ONEWEB-0148             
1 48059U 21025T   25336.12628781  .00000303  00000+0  79390-3 0  9996
2 48059  87.8982 359.4046 0001207 104.2901 255.8363 13.13470723227743
ONEWEB-0160             
1 48060U 21025U   25336.29557712  .00000260  00000+0  67787-3 0  9990
2 48060  87.8984 359.3683 0002438 104.9058 255.2341 13.13469267227718
ONEWEB-0163             
1 48061U 21025V   25336.12796371 -.00000547  00000+0 -15329-2 0  9993
2 48061  87.8991 359.3871 0001579  84.4335 275.6974 13.13472074227810
ONEWEB-0159             
1 48062U 21025W   25336.11951930  .00000078  00000+0  17800-3 0  9991
2 48062  87.8993 359.3724 0001540  90.4309 269.6996 13.13470729227739
ONEWEB-0164             
1 48063U 21025X   25336.10088904 -.00000162  00000+0 -47899-3 0  9990
2 48063  87.8994 359.3834 0001870  93.7085 266.4258 13.13470191227713
ONEWEB-0167             
1 48064U 21025Y   25336.12882740  .00000334  00000+0  88017-3 0  9999
2 48064  87.8984 359.4061 0002017  72.8336 287.3014 13.13468503227702
